{
  "type": "FeatureCollection",
  "metadata": {
    "city": "Dhaka, Bangladesh",
    "authority": "Dhaka North & South City Corporations (DNCC & DSCC)",
    "projection": "EPSG:4326 (WGS 84)",
    "elevation_datum": "EGM96",
    "total_area_hectares": 30600,
    "total_area_sqkm": 306.0
  },
  "features": [
    {
      "type": "Feature",
      "properties": {
        "sector_id": "DSCC-W47",
        "sector_name": "Ward 47 (Old Dhaka / Kotwali & Sadarghat)",
        "area_hectares": 390,
        "area_sqkm": 3.9,
        "population": 195000,
        "population_density": 50000,
        "elevation_m": 6.8,
        "landmarks": "Sadarghat River Terminal, Ahsan Manzil, Shakharibazar, Jagannath University",
        "mean_lst_c": 39.8,
        "mean_ndvi": 0.08,
        "built_up_pct": 84.5,
        "canopy_pct": 6.5,
        "water_pct": 9.0,
        "climate_risk_score": 93,
        "risk_tier": "Extreme Risk",
        "recommendation": "High-Priority Dense Urban Retrofitting: High-albedo cool roofs and vertical greening along riverfront alleys."
      },
      "geometry": {
        "type": "Polygon",
        "coordinates": [
          [
            [
              90.395,
              23.705
            ],
            [
              90.415,
              23.706
            ],
            [
              90.42,
              23.692
            ],
            [
              90.398,
              23.69
            ],
            [
              90.395,
              23.705
            ]
          ]
        ]
      }
    },
    {
      "type": "Feature",
      "properties": {
        "sector_id": "DNCC-W35",
        "sector_name": "Ward 35 (Mirpur-10 & Senpara)",
        "area_hectares": 485,
        "area_sqkm": 4.85,
        "population": 162000,
        "population_density": 33402,
        "elevation_m": 8.5,
        "landmarks": "Mirpur-10 Roundabout, Sher-e-Bangla Stadium, Metrorail Station",
        "mean_lst_c": 38.6,
        "mean_ndvi": 0.14,
        "built_up_pct": 76.0,
        "canopy_pct": 12.5,
        "water_pct": 11.5,
        "climate_risk_score": 85,
        "risk_tier": "Extreme Risk",
        "recommendation": "Metrorail Corridor Shading: Plant native shade trees under elevated transit tracks and install bioswales."
      },
      "geometry": {
        "type": "Polygon",
        "coordinates": [
          [
            [
              90.355,
              23.815
            ],
            [
              90.378,
              23.818
            ],
            [
              90.38,
              23.8
            ],
            [
              90.358,
              23.798
            ],
            [
              90.355,
              23.815
            ]
          ]
        ]
      }
    },
    {
      "type": "Feature",
      "properties": {
        "sector_id": "DNCC-W19",
        "sector_name": "Ward 19 (Gulshan-1 & Banani)",
        "area_hectares": 620,
        "area_sqkm": 6.2,
        "population": 118000,
        "population_density": 19032,
        "elevation_m": 11.2,
        "landmarks": "Gulshan Lake Park, Kemal Ataturk Avenue, Banani Road 11",
        "mean_lst_c": 34.2,
        "mean_ndvi": 0.32,
        "built_up_pct": 58.0,
        "canopy_pct": 28.5,
        "water_pct": 13.5,
        "climate_risk_score": 58,
        "risk_tier": "Moderate Risk",
        "recommendation": "Lakefront Ecosystem Preservation: Preserve Gulshan-Banani lake buffer zone and mandate permeable paving."
      },
      "geometry": {
        "type": "Polygon",
        "coordinates": [
          [
            [
              90.4,
              23.795
            ],
            [
              90.425,
              23.796
            ],
            [
              90.428,
              23.778
            ],
            [
              90.402,
              23.776
            ],
            [
              90.4,
              23.795
            ]
          ]
        ]
      }
    },
    {
      "type": "Feature",
      "properties": {
        "sector_id": "DSCC-W15",
        "sector_name": "Ward 15 (Dhanmondi Lake & Residential)",
        "area_hectares": 410,
        "area_sqkm": 4.1,
        "population": 105000,
        "population_density": 25609,
        "elevation_m": 9.8,
        "landmarks": "Dhanmondi Lake, Rabindra Sarobar, Road 27 Commercial Corridor",
        "mean_lst_c": 34.8,
        "mean_ndvi": 0.29,
        "built_up_pct": 61.0,
        "canopy_pct": 24.5,
        "water_pct": 14.5,
        "climate_risk_score": 62,
        "risk_tier": "High Risk",
        "recommendation": "Urban Water Corridor Restoration: Maintain natural aeration in Dhanmondi lake and plant bioswales along arterial roads."
      },
      "geometry": {
        "type": "Polygon",
        "coordinates": [
          [
            [
              90.368,
              23.755
            ],
            [
              90.388,
              23.756
            ],
            [
              90.389,
              23.738
            ],
            [
              90.369,
              23.737
            ],
            [
              90.368,
              23.755
            ]
          ]
        ]
      }
    },
    {
      "type": "Feature",
      "properties": {
        "sector_id": "DSCC-W21",
        "sector_name": "Ward 21 (Shahbagh & Ramna Green Buffer)",
        "area_hectares": 380,
        "area_sqkm": 3.8,
        "population": 65000,
        "population_density": 17105,
        "elevation_m": 10.5,
        "landmarks": "Ramna Park, Suhrawardy Udyan, Dhaka University Curzon Hall",
        "mean_lst_c": 32.1,
        "mean_ndvi": 0.44,
        "built_up_pct": 36.0,
        "canopy_pct": 52.0,
        "water_pct": 12.0,
        "climate_risk_score": 45,
        "risk_tier": "Moderate Risk",
        "recommendation": "Metropolitan Thermal Sanctuary: Legally preserve Ramna and Suhrawardy historic canopies as core city cooling buffer."
      },
      "geometry": {
        "type": "Polygon",
        "coordinates": [
          [
            [
              90.392,
              23.742
            ],
            [
              90.412,
              23.744
            ],
            [
              90.414,
              23.725
            ],
            [
              90.394,
              23.723
            ],
            [
              90.392,
              23.742
            ]
          ]
        ]
      }
    },
    {
      "type": "Feature",
      "properties": {
        "sector_id": "DNCC-W24",
        "sector_name": "Ward 24 (Tejgaon Industrial Corridor)",
        "area_hectares": 510,
        "area_sqkm": 5.1,
        "population": 142000,
        "population_density": 27843,
        "elevation_m": 10.2,
        "landmarks": "Tejgaon Industrial Area, Nabikol Roundabout, Hatirjheel Link",
        "mean_lst_c": 38.9,
        "mean_ndvi": 0.11,
        "built_up_pct": 79.5,
        "canopy_pct": 9.5,
        "water_pct": 11.0,
        "climate_risk_score": 88,
        "risk_tier": "Extreme Risk",
        "recommendation": "Industrial Roof Albedo Upgrade: Replace dark tin factory roofing with reflective cool surfaces to lower heat plume."
      },
      "geometry": {
        "type": "Polygon",
        "coordinates": [
          [
            [
              90.39,
              23.772
            ],
            [
              90.412,
              23.774
            ],
            [
              90.415,
              23.755
            ],
            [
              90.392,
              23.753
            ],
            [
              90.39,
              23.772
            ]
          ]
        ]
      }
    }
  ]
}